[
  {
    "OBJECT_NAME": "EWS-G2 (GOES 15)",
    "OBJECT_ID": "2010-008A",
    "EPOCH": "2025-04-16T09:49:38.602848",
    "MEAN_MOTION": 1.00274789,
    "ECCENTRICITY": 0.0001902,
    "INCLINATION": 0.1686,
    "RA_OF_ASC_NODE": 86.1757,
    "ARG_OF_PERICENTER": 196.7226,
    "MEAN_ANOMALY": 130.6731,
    "EPHEMERIS_TYPE": 0,
    "CLASSIFICATION_TYPE": "U",
    "NORAD_CAT_ID": 36411,
    "ELEMENT_SET_NO": 999,
    "REV_AT_EPOCH": 5535,
    "BSTAR": 0,
    "MEAN_MOTION_DOT": 4.8e-7,
    "MEAN_MOTION_DDOT": 0
  },
  {
    "OBJECT_NAME": "GOES 16",
    "OBJECT_ID": "2016-071A",
    "EPOCH": "2025-04-16T21:01:05.074752",
    "MEAN_MOTION": 1.00132862,
    "ECCENTRICITY": 8.89e-5,
    "INCLINATION": 0.0598,
    "RA_OF_ASC_NODE": 281.3915,
    "ARG_OF_PERICENTER": 172.5776,
    "MEAN_ANOMALY": 348.1182,
    "EPHEMERIS_TYPE": 0,
    "CLASSIFICATION_TYPE": "U",
    "NORAD_CAT_ID": 41866,
    "ELEMENT_SET_NO": 999,
    "REV_AT_EPOCH": 3082,
    "BSTAR": 0,
    "MEAN_MOTION_DOT": -2.1e-6,
    "MEAN_MOTION_DDOT": 0
  },
  {
    "OBJECT_NAME": "GOES 17",
    "OBJECT_ID": "2018-022A",
    "EPOCH": "2025-04-16T20:53:34.687968",
    "MEAN_MOTION": 1.00272647,
    "ECCENTRICITY": 0.000247,
    "INCLINATION": 0.0223,
    "RA_OF_ASC_NODE": 297.8274,
    "ARG_OF_PERICENTER": 148.1787,
    "MEAN_ANOMALY": 328.2608,
    "EPHEMERIS_TYPE": 0,
    "CLASSIFICATION_TYPE": "U",
    "NORAD_CAT_ID": 43226,
    "ELEMENT_SET_NO": 999,
    "REV_AT_EPOCH": 2614,
    "BSTAR": 0,
    "MEAN_MOTION_DOT": -8.2e-7,
    "MEAN_MOTION_DDOT": 0
  },
  {
    "OBJECT_NAME": "GOES 18",
    "OBJECT_ID": "2022-021A",
    "EPOCH": "2025-04-16T17:18:45.857376",
    "MEAN_MOTION": 1.00272537,
    "ECCENTRICITY": 4.05e-5,
    "INCLINATION": 0.0025,
    "RA_OF_ASC_NODE": 306.7019,
    "ARG_OF_PERICENTER": 145.4288,
    "MEAN_ANOMALY": 235.6703,
    "EPHEMERIS_TYPE": 0,
    "CLASSIFICATION_TYPE": "U",
    "NORAD_CAT_ID": 51850,
    "ELEMENT_SET_NO": 999,
    "REV_AT_EPOCH": 231,
    "BSTAR": 0,
    "MEAN_MOTION_DOT": 1.07e-6,
    "MEAN_MOTION_DDOT": 0
  },
  {
    "OBJECT_NAME": "GOES 19",
    "OBJECT_ID": "2024-119A",
    "EPOCH": "2025-04-16T14:05:38.704128",
    "MEAN_MOTION": 1.00272129,
    "ECCENTRICITY": 7.52e-5,
    "INCLINATION": 0.0529,
    "RA_OF_ASC_NODE": 61.1689,
    "ARG_OF_PERICENTER": 332.7222,
    "MEAN_ANOMALY": 307.3284,
    "EPHEMERIS_TYPE": 0,
    "CLASSIFICATION_TYPE": "U",
    "NORAD_CAT_ID": 60133,
    "ELEMENT_SET_NO": 999,
    "REV_AT_EPOCH": 268,
    "BSTAR": 0,
    "MEAN_MOTION_DOT": -2.38e-6,
    "MEAN_MOTION_DDOT": 0
  }
]
